[{"OBJECT_NAME":"KUIPER-00065","OBJECT_ID":"2025-134AB","EPOCH":"2026-03-09T16:33:07.968384","MEAN_MOTION":14.799424,"ECCENTRICITY":7.199e-5,"INCLINATION":51.9035,"RA_OF_ASC_NODE":240.6799,"ARG_OF_PERICENTER":80.086,"MEAN_ANOMALY":280.0184,"EPHEMERIS_TYPE":0,"CLASSIFICATION_TYPE":"U","NORAD_CAT_ID":64525,"ELEMENT_SET_NO":999,"REV_AT_EPOCH":3995,"BSTAR":0.00062633885,"MEAN_MOTION_DOT":4.558e-5,"MEAN_MOTION_DDOT":0},{"OBJECT_NAME":"FENGYUN 1C DEB","OBJECT_ID":"1999-025ERS","EPOCH":"2026-03-06T04:23:41.047008","MEAN_MOTION":14.7474883,"ECCENTRICITY":0.00282228,"INCLINATION":98.9847,"RA_OF_ASC_NODE":53.1777,"ARG_OF_PERICENTER":162.8427,"MEAN_ANOMALY":197.3739,"EPHEMERIS_TYPE":0,"CLASSIFICATION_TYPE":"U","NORAD_CAT_ID":38169,"ELEMENT_SET_NO":999,"REV_AT_EPOCH":62497,"BSTAR":0.0025050637,"MEAN_MOTION_DOT":0.00016837,"MEAN_MOTION_DDOT":0}]
